{
    "links": {
        "self": "http://www.neowsapp.com/rest/v1/neo/3843832?api_key=iIulBulltgU6a56xZRHN4H3l9WmuAYTsLGpBGhQ2"
    },
    "id": "3843832",
    "neo_reference_id": "3843832",
    "name": "(2019 RV2)",
    "designation": "2019 RV2",
    "nasa_jpl_url": "http://ssd.jpl.nasa.gov/sbdb.cgi?sstr=3843832",
    "absolute_magnitude_h": 23.8,
    "estimated_diameter": {
        "kilometers": {
            "estimated_diameter_min": 0.046190746,
            "estimated_diameter_max": 0.1032856481
        },
        "meters": {
            "estimated_diameter_min": 46.1907460282,
            "estimated_diameter_max": 103.2856480504
        },
        "miles": {
            "estimated_diameter_min": 0.0287015901,
            "estimated_diameter_max": 0.0641787064
        },
        "feet": {
            "estimated_diameter_min": 151.544447199,
            "estimated_diameter_max": 338.8636855496
        }
    },
    "is_potentially_hazardous_asteroid": false,
    "close_approach_data": [
        {
            "close_approach_date": "2019-08-20",
            "close_approach_date_full": "2019-Aug-20 14:26",
            "epoch_date_close_approach": 1566311160000,
            "relative_velocity": {
                "kilometers_per_second": "4.6592360966",
                "kilometers_per_hour": "16773.2499477818",
                "miles_per_hour": "10422.2452244981"
            },
            "miss_distance": {
                "astronomical": "0.2124060008",
                "lunar": "82.6259343112",
                "kilometers": "31775485.294898296",
                "miles": "19744371.0036006448"
            },
            "orbiting_body": "Earth"
        }
    ],
    "orbital_data": {
        "orbit_id": "3",
        "orbit_determination_date": "2019-09-23 06:01:10",
        "first_observation_date": "2019-09-05",
        "last_observation_date": "2019-09-20",
        "data_arc_in_days": 15,
        "observations_used": 26,
        "orbit_uncertainty": "9",
        "minimum_orbit_intersection": ".206273",
        "jupiter_tisserand_invariant": "3.537",
        "epoch_osculation": "2458734.5",
        "eccentricity": ".4433458036500476",
        "semi_major_axis": "2.18288087554976",
        "inclination": "6.79650496740328",
        "ascending_node_longitude": "342.1777508504173",
        "orbital_period": "1177.995091549597",
        "perihelion_distance": "1.215109799506832",
        "perihelion_argument": "342.5034961850039",
        "aphelion_distance": "3.150651951592688",
        "perihelion_time": "2458710.653873047192",
        "mean_anomaly": "7.287471539221979",
        "mean_motion": ".3056039898489194",
        "equinox": "J2000",
        "orbit_class": {
            "orbit_class_type": "AMO",
            "orbit_class_description": "Near-Earth asteroid orbits similar to that of 1221 Amor",
            "orbit_class_range": "1.017 AU < q (perihelion) < 1.3 AU"
        }
    },
    "is_sentry_object": false
}